<?xml version="1.0" encoding="UTF-8"?>
<ndm xmlns:xsi="http://www.w3.org/2001/XMLSchema-instance" xsi:noNamespaceSchemaLocation="https://sanaregistry.org/r/ndmxml_unqualified/ndmxml-2.0.0-master-2.0.xsd">
<omm id="CCSDS_OMM_VERS" version="2.0">
<header><CREATION_DATE/><ORIGINATOR/></header><body><segment><metadata><OBJECT_NAME>KUIPER-00095</OBJECT_NAME><OBJECT_ID>2025-171C</OBJECT_ID><CENTER_NAME>EARTH</CENTER_NAME><REF_FRAME>TEME</REF_FRAME><TIME_SYSTEM>UTC</TIME_SYSTEM><MEAN_ELEMENT_THEORY>SGP4</MEAN_ELEMENT_THEORY></metadata><data><meanElements><EPOCH>2026-01-18T05:55:46.275168</EPOCH><MEAN_MOTION>14.96216586</MEAN_MOTION><ECCENTRICITY>.00043084</ECCENTRICITY><INCLINATION>51.8929</INCLINATION><RA_OF_ASC_NODE>9.8443</RA_OF_ASC_NODE><ARG_OF_PERICENTER>329.0297</ARG_OF_PERICENTER><MEAN_ANOMALY>31.0418</MEAN_ANOMALY></meanElements><tleParameters><EPHEMERIS_TYPE>0</EPHEMERIS_TYPE><CLASSIFICATION_TYPE>U</CLASSIFICATION_TYPE><NORAD_CAT_ID>65134</NORAD_CAT_ID><ELEMENT_SET_NO>999</ELEMENT_SET_NO><REV_AT_EPOCH>2558</REV_AT_EPOCH><BSTAR>.6550292E-3</BSTAR><MEAN_MOTION_DOT>.7219E-4</MEAN_MOTION_DOT><MEAN_MOTION_DDOT>0</MEAN_MOTION_DDOT></tleParameters></data></segment></body></omm>
<omm id="CCSDS_OMM_VERS" version="2.0">
<header><CREATION_DATE/><ORIGINATOR/></header><body><segment><metadata><OBJECT_NAME>KUIPER-00096</OBJECT_NAME><OBJECT_ID>2025-171D</OBJECT_ID><CENTER_NAME>EARTH</CENTER_NAME><REF_FRAME>TEME</REF_FRAME><TIME_SYSTEM>UTC</TIME_SYSTEM><MEAN_ELEMENT_THEORY>SGP4</MEAN_ELEMENT_THEORY></metadata><data><meanElements><EPOCH>2026-01-18T07:12:05.590080</EPOCH><MEAN_MOTION>14.79944390</MEAN_MOTION><ECCENTRICITY>.00024692</ECCENTRICITY><INCLINATION>51.9005</INCLINATION><RA_OF_ASC_NODE>20.9072</RA_OF_ASC_NODE><ARG_OF_PERICENTER>46.7119</ARG_OF_PERICENTER><MEAN_ANOMALY>313.4049</MEAN_ANOMALY></meanElements><tleParameters><EPHEMERIS_TYPE>0</EPHEMERIS_TYPE><CLASSIFICATION_TYPE>U</CLASSIFICATION_TYPE><NORAD_CAT_ID>65135</NORAD_CAT_ID><ELEMENT_SET_NO>999</ELEMENT_SET_NO><REV_AT_EPOCH>2543</REV_AT_EPOCH><BSTAR>.51042435E-3</BSTAR><MEAN_MOTION_DOT>.3673E-4</MEAN_MOTION_DOT><MEAN_MOTION_DDOT>0</MEAN_MOTION_DDOT></tleParameters></data></segment></body></omm>
<omm id="CCSDS_OMM_VERS" version="2.0">
<header><CREATION_DATE/><ORIGINATOR/></header><body><segment><metadata><OBJECT_NAME>KUIPER-00097</OBJECT_NAME><OBJECT_ID>2025-171E</OBJECT_ID><CENTER_NAME>EARTH</CENTER_NAME><REF_FRAME>TEME</REF_FRAME><TIME_SYSTEM>UTC</TIME_SYSTEM><MEAN_ELEMENT_THEORY>SGP4</MEAN_ELEMENT_THEORY></metadata><data><meanElements><EPOCH>2026-01-18T07:08:19.313664</EPOCH><MEAN_MOTION>14.79935967</MEAN_MOTION><ECCENTRICITY>.00026625</ECCENTRICITY><INCLINATION>51.8998</INCLINATION><RA_OF_ASC_NODE>23.5384</RA_OF_ASC_NODE><ARG_OF_PERICENTER>28.0166</ARG_OF_PERICENTER><MEAN_ANOMALY>332.0939</MEAN_ANOMALY></meanElements><tleParameters><EPHEMERIS_TYPE>0</EPHEMERIS_TYPE><CLASSIFICATION_TYPE>U</CLASSIFICATION_TYPE><NORAD_CAT_ID>65136</NORAD_CAT_ID><ELEMENT_SET_NO>999</ELEMENT_SET_NO><REV_AT_EPOCH>2538</REV_AT_EPOCH><BSTAR>.2731699E-5</BSTAR><MEAN_MOTION_DOT>-.201E-5</MEAN_MOTION_DOT><MEAN_MOTION_DDOT>0</MEAN_MOTION_DDOT></tleParameters></data></segment></body></omm>
<omm id="CCSDS_OMM_VERS" version="2.0">
<header><CREATION_DATE/><ORIGINATOR/></header><body><segment><metadata><OBJECT_NAME>KUIPER-00098</OBJECT_NAME><OBJECT_ID>2025-171F</OBJECT_ID><CENTER_NAME>EARTH</CENTER_NAME><REF_FRAME>TEME</REF_FRAME><TIME_SYSTEM>UTC</TIME_SYSTEM><MEAN_ELEMENT_THEORY>SGP4</MEAN_ELEMENT_THEORY></metadata><data><meanElements><EPOCH>2026-01-18T07:04:11.054496</EPOCH><MEAN_MOTION>14.79970566</MEAN_MOTION><ECCENTRICITY>.00068413</ECCENTRICITY><INCLINATION>51.9007</INCLINATION><RA_OF_ASC_NODE>25.9328</RA_OF_ASC_NODE><ARG_OF_PERICENTER>339.1362</ARG_OF_PERICENTER><MEAN_ANOMALY>20.9320</MEAN_ANOMALY></meanElements><tleParameters><EPHEMERIS_TYPE>0</EPHEMERIS_TYPE><CLASSIFICATION_TYPE>U</CLASSIFICATION_TYPE><NORAD_CAT_ID>65137</NORAD_CAT_ID><ELEMENT_SET_NO>999</ELEMENT_SET_NO><REV_AT_EPOCH>2470</REV_AT_EPOCH><BSTAR>.43250221E-3</BSTAR><MEAN_MOTION_DOT>.308E-4</MEAN_MOTION_DOT><MEAN_MOTION_DDOT>0</MEAN_MOTION_DDOT></tleParameters></data></segment></body></omm>
<omm id="CCSDS_OMM_VERS" version="2.0">
<header><CREATION_DATE/><ORIGINATOR/></header><body><segment><metadata><OBJECT_NAME>KUIPER-00099</OBJECT_NAME><OBJECT_ID>2025-171G</OBJECT_ID><CENTER_NAME>EARTH</CENTER_NAME><REF_FRAME>TEME</REF_FRAME><TIME_SYSTEM>UTC</TIME_SYSTEM><MEAN_ELEMENT_THEORY>SGP4</MEAN_ELEMENT_THEORY></metadata><data><meanElements><EPOCH>2026-01-18T06:31:13.272960</EPOCH><MEAN_MOTION>14.79946381</MEAN_MOTION><ECCENTRICITY>.00006564</ECCENTRICITY><INCLINATION>51.9036</INCLINATION><RA_OF_ASC_NODE>16.0076</RA_OF_ASC_NODE><ARG_OF_PERICENTER>56.8051</ARG_OF_PERICENTER><MEAN_ANOMALY>303.2974</MEAN_ANOMALY></meanElements><tleParameters><EPHEMERIS_TYPE>0</EPHEMERIS_TYPE><CLASSIFICATION_TYPE>U</CLASSIFICATION_TYPE><NORAD_CAT_ID>65138</NORAD_CAT_ID><ELEMENT_SET_NO>999</ELEMENT_SET_NO><REV_AT_EPOCH>2549</REV_AT_EPOCH><BSTAR>.58446658E-3</BSTAR><MEAN_MOTION_DOT>.4239E-4</MEAN_MOTION_DOT><MEAN_MOTION_DDOT>0</MEAN_MOTION_DDOT></tleParameters></data></segment></body></omm>
<omm id="CCSDS_OMM_VERS" version="2.0">
<header><CREATION_DATE/><ORIGINATOR/></header><body><segment><metadata><OBJECT_NAME>KUIPER-00100</OBJECT_NAME><OBJECT_ID>2025-171H</OBJECT_ID><CENTER_NAME>EARTH</CENTER_NAME><REF_FRAME>TEME</REF_FRAME><TIME_SYSTEM>UTC</TIME_SYSTEM><MEAN_ELEMENT_THEORY>SGP4</MEAN_ELEMENT_THEORY></metadata><data><meanElements><EPOCH>2026-01-18T05:46:31.143936</EPOCH><MEAN_MOTION>14.79941833</MEAN_MOTION><ECCENTRICITY>.00009758</ECCENTRICITY><INCLINATION>51.9021</INCLINATION><RA_OF_ASC_NODE>13.6319</RA_OF_ASC_NODE><ARG_OF_PERICENTER>88.7708</ARG_OF_PERICENTER><MEAN_ANOMALY>271.3367</MEAN_ANOMALY></meanElements><tleParameters><EPHEMERIS_TYPE>0</EPHEMERIS_TYPE><CLASSIFICATION_TYPE>U</CLASSIFICATION_TYPE><NORAD_CAT_ID>65139</NORAD_CAT_ID><ELEMENT_SET_NO>999</ELEMENT_SET_NO><REV_AT_EPOCH>2552</REV_AT_EPOCH><BSTAR>.43720011E-3</BSTAR><MEAN_MOTION_DOT>.3114E-4</MEAN_MOTION_DOT><MEAN_MOTION_DDOT>0</MEAN_MOTION_DDOT></tleParameters></data></segment></body></omm>
<omm id="CCSDS_OMM_VERS" version="2.0">
<header><CREATION_DATE/><ORIGINATOR/></header><body><segment><metadata><OBJECT_NAME>KUIPER-00102</OBJECT_NAME><OBJECT_ID>2025-171J</OBJECT_ID><CENTER_NAME>EARTH</CENTER_NAME><REF_FRAME>TEME</REF_FRAME><TIME_SYSTEM>UTC</TIME_SYSTEM><MEAN_ELEMENT_THEORY>SGP4</MEAN_ELEMENT_THEORY></metadata><data><meanElements><EPOCH>2026-01-18T08:57:34.587936</EPOCH><MEAN_MOTION>14.79898939</MEAN_MOTION><ECCENTRICITY>.00007129</ECCENTRICITY><INCLINATION>51.8995</INCLINATION><RA_OF_ASC_NODE>15.5880</RA_OF_ASC_NODE><ARG_OF_PERICENTER>76.0136</ARG_OF_PERICENTER><MEAN_ANOMALY>284.0906</MEAN_ANOMALY></meanElements><tleParameters><EPHEMERIS_TYPE>0</EPHEMERIS_TYPE><CLASSIFICATION_TYPE>U</CLASSIFICATION_TYPE><NORAD_CAT_ID>65140</NORAD_CAT_ID><ELEMENT_SET_NO>999</ELEMENT_SET_NO><REV_AT_EPOCH>2550</REV_AT_EPOCH><BSTAR>.4842354E-3</BSTAR><MEAN_MOTION_DOT>.3469E-4</MEAN_MOTION_DOT><MEAN_MOTION_DDOT>0</MEAN_MOTION_DDOT></tleParameters></data></segment></body></omm>
<omm id="CCSDS_OMM_VERS" version="2.0">
<header><CREATION_DATE/><ORIGINATOR/></header><body><segment><metadata><OBJECT_NAME>KUIPER-00103</OBJECT_NAME><OBJECT_ID>2025-171K</OBJECT_ID><CENTER_NAME>EARTH</CENTER_NAME><REF_FRAME>TEME</REF_FRAME><TIME_SYSTEM>UTC</TIME_SYSTEM><MEAN_ELEMENT_THEORY>SGP4</MEAN_ELEMENT_THEORY></metadata><data><meanElements><EPOCH>2026-01-18T07:41:05.678304</EPOCH><MEAN_MOTION>14.79951026</MEAN_MOTION><ECCENTRICITY>.00032254</ECCENTRICITY><INCLINATION>51.8999</INCLINATION><RA_OF_ASC_NODE>33.3073</RA_OF_ASC_NODE><ARG_OF_PERICENTER>356.5662</ARG_OF_PERICENTER><MEAN_ANOMALY>3.5278</MEAN_ANOMALY></meanElements><tleParameters><EPHEMERIS_TYPE>0</EPHEMERIS_TYPE><CLASSIFICATION_TYPE>U</CLASSIFICATION_TYPE><NORAD_CAT_ID>65141</NORAD_CAT_ID><ELEMENT_SET_NO>999</ELEMENT_SET_NO><REV_AT_EPOCH>2525</REV_AT_EPOCH><BSTAR>-.21708979E-2</BSTAR><MEAN_MOTION_DOT>-.16739E-3</MEAN_MOTION_DOT><MEAN_MOTION_DDOT>0</MEAN_MOTION_DDOT></tleParameters></data></segment></body></omm>

</ndm>
