KUIPER-00095            
1 65134U 25171C   26018.24706337  .00007219  00000+0  65503-3 0  9994
2 65134  51.8929   9.8443 0004308 329.0297  31.0418 14.96216586 25585
KUIPER-00096            
1 65135U 25171D   26018.30006470  .00003673  00000+0  51042-3 0  9996
2 65135  51.9005  20.9072 0002469  46.7119 313.4049 14.79944390 25439
KUIPER-00097            
1 65136U 25171E   26018.29744576 -.00000201  00000+0  27317-5 0  9996
2 65136  51.8998  23.5384 0002662  28.0166 332.0939 14.79935967 25384
KUIPER-00098            
1 65137U 25171F   26018.29457239  .00003080  00000+0  43250-3 0  9993
2 65137  51.9007  25.9328 0006841 339.1362  20.9320 14.79970566 24704
KUIPER-00099            
1 65138U 25171G   26018.27168140  .00004239  00000+0  58447-3 0  9993
2 65138  51.9036  16.0076 0000656  56.8051 303.2974 14.79946381 25491
KUIPER-00100            
1 65139U 25171H   26018.24063824  .00003114  00000+0  43720-3 0  9993
2 65139  51.9021  13.6319 0000975  88.7708 271.3367 14.79941833 25528
KUIPER-00102            
1 65140U 25171J   26018.37331699  .00003469  00000+0  48424-3 0  9996
2 65140  51.8995  15.5880 0000712  76.0136 284.0906 14.79898939 25503
KUIPER-00103            
1 65141U 25171K   26018.32020461 -.00016739  00000+0 -21709-2 0  9996
2 65141  51.8999  33.3073 0003225 356.5662   3.5278 14.79951026 25257
